ONEWEB-0518             
1 54136U 22138Z   25069.90504550  .00000022  00000+0  22516-4 0  9998
2 54136  87.9206  37.0637 0001941  86.2664 273.8690 13.19725123115721
ONEWEB-0519             
1 54137U 22138AA  25070.15776737  .00000129  00000+0  29059-3 0  9992
2 54137  87.9197  36.9771 0001926  91.2998 268.8355 13.19726317116636
ONEWEB-0520             
1 54138U 22138AB  25069.96505288 -.00000014  00000+0 -66825-4 0  9999
2 54138  87.9198  37.0190 0002362  82.3194 277.8206 13.19728073116590
ONEWEB-0521             
1 54139U 22138AC  25069.84660240  .00000065  00000+0  13126-3 0  9996
2 54139  87.9197  37.0311 0001722  88.7652 271.3678 13.19726617115653
ONEWEB-0522             
1 54140U 22138AD  25069.90188529  .00000004  00000+0 -23028-4 0  9997
2 54140  87.9198  37.0219 0002009  79.5432 280.5927 13.19725009115705
ONEWEB-0523             
1 54141U 22138AE  25069.85346819  .00000003  00000+0 -23855-4 0  9997
2 54141  87.9331   6.6481 0001036  65.0582 295.0659 13.20771366118146
ONEWEB-0524             
1 54142U 22138AF  25069.84242303  .00000033  00000+0  50164-4 0  9995
2 54142  87.9331   6.6524 0001912  50.0607 310.0694 13.20771888118146
ONEWEB-0525             
1 54143U 22138AG  25069.84502433  .00000040  00000+0  68049-4 0  9998
2 54143  87.9199  37.0490 0002258  85.3256 274.8135 13.19725137115715
ONEWEB-0526             
1 54144U 22138AH  25069.87818880  .00000057  00000+0  10923-3 0  9993
2 54144  87.9198  37.0333 0002051  81.3948 278.7417 13.19724159115692
ONEWEB-0529             
1 54145U 22138AJ  25069.95716423 -.00000037  00000+0 -12547-3 0  9997
2 54145  87.9205  37.0521 0002233  82.8051 277.3335 13.19726889116590
ONEWEB-0535             
1 54147U 22138AL  25069.83870257 -.00000026  00000+0 -96401-4 0  9992
2 54147  87.9195  37.0376 0001664  80.2376 279.8945 13.19725625115722
ONEWEB-0536             
1 54148U 22138AM  25069.81558640 -.00000064  00000+0 -18968-3 0  9993
2 54148  87.9331   6.6976 0001257  46.6009 313.5228 13.20772628118135
SKIF-D                  
1 54153U 22139D   25069.58513396  .00000047  00000+0  00000+0 0  9996
2 54153  89.9767  96.7797 0008125 326.9907  33.0307  5.00431705 40918
STARLINK-5290           
1 54157U 22141A   25069.67170792  .00001566  00000+0  11648-3 0  9993
2 54157  53.2178 208.2137 0001430  93.7423 266.3733 15.08824359130761
STARLINK-5297           
1 54158U 22141B   25069.68917629 -.00001488  00000+0 -75448-4 0  9997
2 54158  53.2170 208.3169 0001308  82.7007 277.4134 15.08829631130766
STARLINK-5294           
1 54159U 22141C   25070.08292837  .00000631  00000+0  57723-4 0  9994
2 54159  53.2169 206.5152 0001238  85.2114 274.9020 15.08837257130822
STARLINK-5269           
1 54161U 22141E   25069.68644974 -.00000228  00000+0  37739-5 0  9993
2 54161  53.2164 208.2958 0001228  72.0620 288.0506 15.08834201130762
STARLINK-5273           
1 54162U 22141F   25070.07556389 -.00000513  00000+0 -14145-4 0  9994
2 54162  53.2175 206.4651 0001329 104.0940 256.0200 15.08832263130827
STARLINK-5161           
1 54163U 22141G   25069.62385619 -.00001821  00000+0 -96385-4 0  9999
2 54163  53.2177 198.6452 0001424  85.6961 274.4193 15.08836460130899
STARLINK-5278           
1 54164U 22141H   25069.62754200 -.00001192  00000+0 -56827-4 0  9994
2 54164  53.2157 198.6671 0001293  90.5011 269.6129 15.08833238130891
STARLINK-5279           
1 54165U 22141J   25070.07186961 -.00002339  00000+0 -12891-3 0  9995
2 54165  53.2175 206.4433 0001211  88.4600 271.6531 15.08837367130826
STARLINK-5280           
1 54166U 22141K   25069.62016826 -.00000942  00000+0 -41125-4 0  9998
2 54166  53.2173 198.6187 0001318 111.2226 248.8907 15.08840873130896
STARLINK-5243           
1 54167U 22141L   25069.78849042 -.00000637  00000+0 -21953-4 0  9998
2 54167  53.2167 207.5145 0001291  95.2697 264.8443 15.08834326130784
STARLINK-5245           
1 54168U 22141M   25070.08016703  .00000013  00000+0  18912-4 0  9991
2 54168  53.2162 196.5160 0001302  81.1370 278.9770 15.08836714130961
STARLINK-5155           
1 54170U 22141P   25070.07648151 -.00000615  00000+0 -20565-4 0  9998
2 54170  53.2171 196.4910 0001409  77.7356 282.3793 15.08840974130955
