OBJECT_NAME,OBJECT_ID,EPOCH,MEAN_MOTION,ECCENTRICITY,INCLINATION,RA_OF_ASC_NODE,ARG_OF_PERICENTER,MEAN_ANOMALY,EPHEMERIS_TYPE,CLASSIFICATION_TYPE,NORAD_CAT_ID,ELEMENT_SET_NO,REV_AT_EPOCH,BSTAR,MEAN_MOTION_DOT,MEAN_MOTION_DDOT
ONEWEB-0518,2022-138Z,2025-03-10T21:43:15.931200,13.19725123,.0001941,87.9206,37.0637,86.2664,273.8690,0,U,54136,999,11572,.22516E-4,.22E-6,0
ONEWEB-0519,2022-138AA,2025-03-11T03:47:11.100768,13.19726317,.0001926,87.9197,36.9771,91.2998,268.8355,0,U,54137,999,11663,.29059E-3,.129E-5,0
ONEWEB-0520,2022-138AB,2025-03-10T23:09:40.568832,13.19728073,.0002362,87.9198,37.0190,82.3194,277.8206,0,U,54138,999,11659,-.66825E-4,-.14E-6,0
ONEWEB-0521,2022-138AC,2025-03-10T20:19:06.447360,13.19726617,.0001722,87.9197,37.0311,88.7652,271.3678,0,U,54139,999,11565,.13126E-3,.65E-6,0
ONEWEB-0522,2022-138AD,2025-03-10T21:38:42.889056,13.19725009,.0002009,87.9198,37.0219,79.5432,280.5927,0,U,54140,999,11570,-.23028E-4,.4E-7,0
ONEWEB-0523,2022-138AE,2025-03-10T20:28:59.651616,13.20771366,.0001036,87.9331,6.6481,65.0582,295.0659,0,U,54141,999,11814,-.23855E-4,.3E-7,0
ONEWEB-0524,2022-138AF,2025-03-10T20:13:05.349792,13.20771888,.0001912,87.9331,6.6524,50.0607,310.0694,0,U,54142,999,11814,.50164E-4,.33E-6,0
ONEWEB-0525,2022-138AG,2025-03-10T20:16:50.102112,13.19725137,.0002258,87.9199,37.0490,85.3256,274.8135,0,U,54143,999,11571,.68049E-4,.4E-6,0
ONEWEB-0526,2022-138AH,2025-03-10T21:04:35.512320,13.19724159,.0002051,87.9198,37.0333,81.3948,278.7417,0,U,54144,999,11569,.10923E-3,.57E-6,0
ONEWEB-0529,2022-138AJ,2025-03-10T22:58:18.989472,13.19726889,.0002233,87.9205,37.0521,82.8051,277.3335,0,U,54145,999,11659,-.12547E-3,-.37E-6,0
ONEWEB-0535,2022-138AL,2025-03-10T20:07:43.902048,13.19725625,.0001664,87.9195,37.0376,80.2376,279.8945,0,U,54147,999,11572,-.96401E-4,-.26E-6,0
ONEWEB-0536,2022-138AM,2025-03-10T19:34:26.664960,13.20772628,.0001257,87.9331,6.6976,46.6009,313.5228,0,U,54148,999,11813,-.18968E-3,-.64E-6,0
SKIF-D,2022-139D,2025-03-10T14:02:35.574144,5.00431705,.0008125,89.9767,96.7797,326.9907,33.0307,0,U,54153,999,4091,0,.47E-6,0
STARLINK-5290,2022-141A,2025-03-10T16:07:15.564288,15.08824359,.000143,53.2178,208.2137,93.7423,266.3733,0,U,54157,999,13076,.11648E-3,.1566E-4,0
STARLINK-5297,2022-141B,2025-03-10T16:32:24.831456,15.08829631,.0001308,53.2170,208.3169,82.7007,277.4134,0,U,54158,999,13076,-.75448E-4,-.1488E-4,0
STARLINK-5294,2022-141C,2025-03-11T01:59:25.011168,15.08837257,.0001238,53.2169,206.5152,85.2114,274.9020,0,U,54159,999,13082,.57723E-4,.631E-5,0
STARLINK-5269,2022-141E,2025-03-10T16:28:29.257536,15.08834201,.0001228,53.2164,208.2958,72.0620,288.0506,0,U,54161,999,13076,.37739E-5,-.228E-5,0
STARLINK-5273,2022-141F,2025-03-11T01:48:48.720096,15.08832263,.0001329,53.2175,206.4651,104.0940,256.0200,0,U,54162,999,13082,-.14145E-4,-.513E-5,0
STARLINK-5161,2022-141G,2025-03-10T14:58:21.174816,15.08836460,.0001424,53.2177,198.6452,85.6961,274.4193,0,U,54163,999,13089,-.96385E-4,-.1821E-4,0
STARLINK-5278,2022-141H,2025-03-10T15:03:39.628800,15.08833238,.0001293,53.2157,198.6671,90.5011,269.6129,0,U,54164,999,13089,-.56827E-4,-.1192E-4,0
STARLINK-5279,2022-141J,2025-03-11T01:43:29.534304,15.08837367,.0001211,53.2175,206.4433,88.4600,271.6531,0,U,54165,999,13082,-.12891E-3,-.2339E-4,0
STARLINK-5280,2022-141K,2025-03-10T14:53:02.537664,15.08840873,.0001318,53.2173,198.6187,111.2226,248.8907,0,U,54166,999,13089,-.41125E-4,-.942E-5,0
STARLINK-5243,2022-141L,2025-03-10T18:55:25.572288,15.08834326,.0001291,53.2167,207.5145,95.2697,264.8443,0,U,54167,999,13078,-.21953E-4,-.637E-5,0
STARLINK-5245,2022-141M,2025-03-11T01:55:26.431392,15.08836714,.0001302,53.2162,196.5160,81.1370,278.9770,0,U,54168,999,13096,.18912E-4,.13E-6,0
STARLINK-5155,2022-141P,2025-03-11T01:50:08.002464,15.08840974,.0001409,53.2171,196.4910,77.7356,282.3793,0,U,54170,999,13095,-.20565E-4,-.615E-5,0
